     2.10           N: GPS NAV DATA                         RINEX VERSION / TYPE
teqc  2008Oct2      gpsops              20090112 00:05:46UTCPGM / RUN BY / DATE
Linux 2.4.20-8|Pentium IV|gcc -static|Linux|486/DX+         COMMENT
soc2rnx ver 1.20    gpsops              12-Jan-2009 00:05:42COMMENT
Forced Modulo Decimation to 30 seconds                      COMMENT
MADR                                    MARKER NAME         COMMENT
13407S012                               MARKER NUMBER       COMMENT
4849202.3940 -360328.9929 4114913.1862                      COMMENT
                                                            COMMENT
This data is provided as a public service by NASA/JPL.      COMMENT
No warranty is expressed or implied regarding suitability   COMMENT
for use.  For further information, contact:                 COMMENT
Dave Stowers, NASA/JPL m/s 238-600                          COMMENT
4800 Oak Grove Drive, Pasadena CA 91109 USA                 COMMENT
                                                            END OF HEADER
16 09  1 11  9 59 44.0 8.278852328658D-05-2.614797267597D-12 0.000000000000D+00
    3.200000000000D+01-1.235312500000D+02 4.068383750228D-09 2.833757870990D+00
   -6.329268217087D-06 4.947818350047D-03 1.172721385956D-05 5.153750400543D+03
    3.598400000000D+04-4.097819328308D-08-8.663028113894D-02 5.960464477539D-08
    9.677863865190D-01 1.573437500000D+02-3.853805955515D-01-7.635675199378D-09
    6.750281176306D-11 1.000000000000D+00 1.514000000000D+03 0.000000000000D+00
    2.000000000000D+00 0.000000000000D+00-9.778887033463D-09 3.200000000000D+01
    2.880000000000D+04
 6 09  1 11 10  0  0.0 9.584752842784D-05-1.205080479849D-11 0.000000000000D+00
    4.700000000000D+01 2.831250000000D+01 5.286291623836D-09 2.878082499643D+00
    1.516193151474D-06 5.630032392219D-03 8.650124073029D-06 5.153708961487D+03
    3.600000000000D+04 6.891787052155D-08 8.952790419085D-01 9.313225746155D-09
    9.334976757880D-01 1.942500000000D+02-1.482929929618D+00-8.185698110040D-09
    6.743138021622D-10 1.000000000000D+00 1.514000000000D+03 0.000000000000D+00
    2.000000000000D+00 0.000000000000D+00-4.656612873077D-09 4.700000000000D+01
    2.880000000000D+04
24 09  1 11 10  0  0.0 1.566954888403D-04 3.069544618484D-12 0.000000000000D+00
    7.800000000000D+01-2.446875000000D+01 5.104855494865D-09 2.850600332729D+00
   -1.262873411179D-06 7.052386761643D-03 5.887821316719D-06 5.153653488159D+03
    3.600000000000D+04 5.587935447693D-09 2.037869717454D+00 6.332993507385D-08
    9.510344238183D-01 2.629687500000D+02-6.447875992945D-01-8.112837932264D-09
   -5.135928217740D-10 1.000000000000D+00 1.514000000000D+03 0.000000000000D+00
    2.000000000000D+00 0.000000000000D+00-1.396983861923D-09 7.800000000000D+01
    2.880000000000D+04
29 09  1 11 10  0  0.0-1.892726868391D-05 2.842170943040D-12 0.000000000000D+00
    5.000000000000D+00 2.050000000000D+01 4.626264131042D-09-1.992669699103D+00
    1.046806573868D-06 3.223030478694D-03 8.421018719673D-06 5.153756917953D+03
    3.600000000000D+04-1.117587089539D-08 9.629807020916D-01 3.911554813385D-08
    9.596265045015D-01 2.143125000000D+02-1.340897467659D+00-7.916044020722D-09
    6.371693978058D-10 1.000000000000D+00 1.514000000000D+03 0.000000000000D+00
    2.000000000000D+00 0.000000000000D+00-8.847564458847D-09 5.000000000000D+00
    2.880000000000D+04
30 09  1 11 10  0  0.0 1.191049814224D-04 2.273736754432D-12 0.000000000000D+00
    1.250000000000D+02-1.422187500000D+02 4.323751530178D-09 2.586682538122D+00
   -7.361173629761D-06 1.116380980238D-02 1.049600541592D-05 5.153663610458D+03
    3.600000000000D+04 1.210719347000D-07-1.488848711839D-01-1.136213541031D-07
    9.511966789883D-01 1.687187500000D+02 1.413888254030D+00-7.707106746217D-09
    1.357199389945D-11 1.000000000000D+00 1.514000000000D+03 0.000000000000D+00
    2.000000000000D+00 0.000000000000D+00-7.916241884232D-09 1.250000000000D+02
    2.880000000000D+04
31 09  1 11 10  0  0.0-4.726042971015D-05-1.591615728103D-12 0.000000000000D+00
    4.500000000000D+01-8.443750000000D+01 4.685552314918D-09-1.197954415267D+00
   -4.330649971962D-06 7.125914562494D-03 5.643814802170D-07 5.153618144989D+03
    3.600000000000D+04-1.545995473862D-07-1.157179969876D+00-3.911554813385D-08
    9.708187962596D-01 3.764062500000D+02-1.210588613212D+00-8.537141320489D-09
   -1.917937032633D-10 1.000000000000D+00 1.514000000000D+03 0.000000000000D+00
    2.000000000000D+00 0.000000000000D+00-1.303851604462D-08 4.500000000000D+01
    2.880000000000D+04
18 09  1 11 10  0  0.0-9.418511763215D-05 3.637978807092D-12 0.000000000000D+00
    4.100000000000D+01 6.428125000000D+01 4.403040547169D-09 2.964457210456D+00
    3.360211849213D-06 9.885828942060D-03 1.281686127186D-05 5.153753746033D+03
    3.600000000000D+04-1.676380634308D-08 3.066286019623D+00-9.499490261078D-08
    9.447428125360D-01 1.230625000000D+02-2.438997215875D+00-7.666390764519D-09
   -3.643008888800D-10 1.000000000000D+00 1.514000000000D+03 0.000000000000D+00
    2.000000000000D+00 0.000000000000D+00-1.071020960808D-08 4.100000000000D+01
    2.940000000000D+04
22 09  1 11 10  0  0.0 2.067675814033D-04-4.547473508865D-13 0.000000000000D+00
    6.600000000000D+01 6.765625000000D+01 4.558761319279D-09 1.813677110726D+00
    3.568828105927D-06 4.943024832755D-03 1.207180321217D-05 5.153673780441D+03
    3.600000000000D+04-9.313225746155D-09 3.072269503785D+00-1.136213541031D-07
    9.424009615713D-01 1.368437500000D+02-1.813962839108D+00-7.883185509176D-09
   -3.568005764619D-10 1.000000000000D+00 1.514000000000D+03 0.000000000000D+00
    2.000000000000D+00 0.000000000000D+00-1.816079020500D-08 6.600000000000D+01
    3.153000000000D+04
25 09  1 11 10  0  0.0 1.660590060055D-04 2.648903318914D-11 0.000000000000D+00
    9.000000000000D+00-7.693750000000D+01 4.629835708384D-09-2.903771488869D+00
   -3.855675458908D-06 1.179041562136D-02-1.262873411179D-06 5.153682229996D+03
    3.600000000000D+04 4.842877388000D-08-1.249220259587D+00 1.974403858185D-07
    9.677073743136D-01 4.050312500000D+02-1.238840422790D+00-8.407850220710D-09
   -1.428630936784D-10 1.000000000000D+00 1.514000000000D+03 0.000000000000D+00
    2.000000000000D+00 0.000000000000D+00-7.450580596924D-09 9.000000000000D+00
    3.321000000000D+04
19 09  1 11 10  0  0.0 3.396719694138D-05-4.547473508865D-13 0.000000000000D+00
    4.600000000000D+01 2.200000000000D+01 4.885917803802D-09 1.016386887725D+00
    1.164153218269D-06 5.049987346865D-03 7.662922143936D-06 5.153764938354D+03
    3.600000000000D+04 9.872019290924D-08 1.011250618922D+00 5.215406417847D-08
    9.571431264531D-01 2.255937500000D+02-3.946317895866D-01-8.073193423768D-09
    6.193115110960D-10 1.000000000000D+00 1.514000000000D+03 0.000000000000D+00
    2.000000000000D+00 0.000000000000D+00-1.443549990654D-08 4.600000000000D+01
    3.345000000000D+04
19 09  1 11 12  0  0.0 3.396393731236D-05-4.547473508865D-13 0.000000000000D+00
    4.700000000000D+01 3.009375000000D+01 4.874488756308D-09 2.066211935369D+00
    1.747161149979D-06 5.050038453192D-03 8.158385753632D-06 5.153767827988D+03
    4.320000000000D+04 3.166496753693D-08 1.011192846824D+00 8.754432201385D-08
    9.571474961894D-01 2.185312500000D+02-3.943301329528D-01-8.040692069956D-09
    5.903817346261D-10 1.000000000000D+00 1.514000000000D+03 0.000000000000D+00
    2.000000000000D+00 0.000000000000D+00-1.443549990654D-08 4.700000000000D+01
    3.600000000000D+04
18 09  1 11 12  0  0.0-9.415857493877D-05 3.637978807092D-12 0.000000000000D+00
    4.200000000000D+01 6.303125000000D+01 4.381611083118D-09-2.268569614939D+00
    3.218650817871D-06 9.885836043395D-03 1.302175223827D-05 5.153753892899D+03
    4.320000000000D+04-3.166496753693D-08 3.066230956850D+00-1.098960638046D-07
    9.447401778205D-01 1.193750000000D+02-2.439024456873D+00-7.657818978898D-09
   -3.825159333240D-10 1.000000000000D+00 1.514000000000D+03 0.000000000000D+00
    2.000000000000D+00 0.000000000000D+00-1.071020960808D-08 4.200000000000D+01
    3.600000000000D+04
 3 09  1 11 12  0  0.0 3.373869694769D-04 5.343281372916D-12 0.000000000000D+00
    7.000000000000D+01 1.718750000000D+01 5.470585014681D-09 1.388637500931D+00
    9.741634130478D-07 1.159174670465D-02 9.894371032715D-06 5.153726396561D+03
    4.320000000000D+04-2.644956111908D-07 8.287303454996D-01 7.078051567078D-08
    9.260494522139D-01 1.733750000000D+02 8.877438522433D-01-8.472852928334D-09
    6.185971956276D-10 1.000000000000D+00 1.514000000000D+03 0.000000000000D+00
    2.000000000000D+00 0.000000000000D+00-4.190951585770D-09 7.000000000000D+01
    3.600000000000D+04
16 09  1 11 12  0  0.0 8.276896551251D-05-2.614797267597D-12 0.000000000000D+00
    3.300000000000D+01-1.240937500000D+02 4.046239970707D-09-2.396860517261D+00
   -6.409361958504D-06 4.946455243044D-03 1.122243702412D-05 5.153753089905D+03
    4.320000000000D+04-1.098960638046D-07-8.668549605600D-02 2.793967723846D-08
    9.677866820285D-01 1.682812500000D+02-3.854837371278D-01-7.683891493495D-09
    7.536028191537D-11 1.000000000000D+00 1.514000000000D+03 0.000000000000D+00
    2.000000000000D+00 0.000000000000D+00-9.778887033463D-09 3.300000000000D+01
    3.600000000000D+04
 6 09  1 11 12  0  0.0 9.576091542840D-05-1.205080479849D-11 0.000000000000D+00
    6.000000000000D+01 2.568750000000D+01 5.267362263924D-09-2.354910339239D+00
    1.391395926476D-06 5.629530292936D-03 8.823350071907D-06 5.153709951401D+03
    4.320000000000D+04 2.793967723846D-08 8.952199210002D-01 5.401670932770D-08
    9.335027535767D-01 1.916250000000D+02-1.482957701655D+00-8.171411800672D-09
    7.182442034683D-10 1.000000000000D+00 1.514000000000D+03 0.000000000000D+00
    2.000000000000D+00 0.000000000000D+00-4.656612873077D-09 6.000000000000D+01
    3.600000000000D+04
